start=new Date('2022-08-01T00:00:00.000Z').valueOf();
sats=[{"MEAN_MOTION":"15.70283717","MEAN_MOTION_DDOT":"0.0000000000000","MEAN_MOTION_DOT":"0.00014436","EPHEMERIS_TYPE":"0","RA_OF_ASC_NODE":"271.2212","MEAN_ANOMALY":"2.5859","OBJECT_NAME":"STARLINK-4367","LAUNCH_DATE":"2022-07-22","BSTAR":"0.00011998000000","PERIAPSIS":"357.194","ELEMENT_SET_NO":"999","TLE_LINE1":"1 53229U 22084AS  22212.91667824  .00014436  00000-0  11998-3 0  9998","COUNTRY_CODE":"US","RCS_SIZE":"LARGE","FILE":"3526413","REV_AT_EPOCH":"130","NORAD_CAT_ID":"53229","SITE":"AFWTR","APOAPSIS":"358.981","PERIOD":"91.703","TIME_SYSTEM":"UTC","SEMIMAJOR_AXIS":"6736.222","TLE_LINE2":"2 53229  97.6629 271.2212 0001327 113.5128   2.5859 15.70283717  1307","ECCENTRICITY":"0.00013270","CLASSIFICATION_TYPE":"U","GP_ID":"209298841","EPOCH":"2022-07-31T22:00:00.999936","OBJECT_ID":"2022-084AS","ARG_OF_PERICENTER":"113.5128","REF_FRAME":"TEME","MEAN_ELEMENT_THEORY":"SGP4","CENTER_NAME":"EARTH","INCLINATION":"97.6629","DECAY_DATE":null,"OBJECT_TYPE":"PAYLOAD"},{"ECCENTRICITY":"0.00016530","SEMIMAJOR_AXIS":"6736.091","TLE_LINE2":"2 53230  97.6633 271.2201 0001653 102.1974  12.8367 15.70329555  1306","OBJECT_ID":"2022-084AT","GP_ID":"209298591","CLASSIFICATION_TYPE":"U","EPOCH":"2022-07-31T22:00:00.999936","DECAY_DATE":null,"CENTER_NAME":"EARTH","INCLINATION":"97.6633","REF_FRAME":"TEME","MEAN_ELEMENT_THEORY":"SGP4","ARG_OF_PERICENTER":"102.1974","OBJECT_TYPE":"PAYLOAD","MEAN_MOTION_DDOT":"0.0000000000000","MEAN_MOTION":"15.70329555","MEAN_ANOMALY":"12.8367","OBJECT_NAME":"STARLINK-4364","LAUNCH_DATE":"2022-07-22","BSTAR":"-0.00065939000000","RA_OF_ASC_NODE":"271.2201","EPHEMERIS_TYPE":"0","MEAN_MOTION_DOT":"-0.00079458","COUNTRY_CODE":"US","RCS_SIZE":"MEDIUM","FILE":"3526413","TLE_LINE1":"1 53230U 22084AT  22212.91667824 -.00079458  00000-0 -65939-3 0  9991","ELEMENT_SET_NO":"999","PERIAPSIS":"356.843","PERIOD":"91.700","TIME_SYSTEM":"UTC","NORAD_CAT_ID":"53230","APOAPSIS":"359.070","SITE":"AFWTR","REV_AT_EPOCH":"130"},{"MEAN_ELEMENT_THEORY":"SGP4","REF_FRAME":"TEME","ARG_OF_PERICENTER":"98.6778","DECAY_DATE":null,"INCLINATION":"97.6635","CENTER_NAME":"EARTH","OBJECT_TYPE":"PAYLOAD","ECCENTRICITY":"0.00016080","TLE_LINE2":"2 53231  97.6635 271.2220 0001608  98.6778  18.4365 15.70297761  1304","SEMIMAJOR_AXIS":"6736.182","GP_ID":"209299479","CLASSIFICATION_TYPE":"U","EPOCH":"2022-07-31T22:00:00.999936","OBJECT_ID":"2022-084AU","ELEMENT_SET_NO":"999","PERIAPSIS":"356.964","FILE":"3526413","COUNTRY_CODE":"US","RCS_SIZE":"LARGE","TLE_LINE1":"1 53231U 22084AU  22212.91667824  .00013074  00000-0  10872-3 0  9998","REV_AT_EPOCH":"130","TIME_SYSTEM":"UTC","PERIOD":"91.702","APOAPSIS":"359.131","SITE":"AFWTR","NORAD_CAT_ID":"53231","MEAN_MOTION_DDOT":"0.0000000000000","MEAN_MOTION":"15.70297761","MEAN_MOTION_DOT":"0.00013074","BSTAR":"0.00010872000000","LAUNCH_DATE":"2022-07-22","MEAN_ANOMALY":"18.4365","OBJECT_NAME":"STARLINK-4370","EPHEMERIS_TYPE":"0","RA_OF_ASC_NODE":"271.2220"},{"ARG_OF_PERICENTER":"100.7886","REF_FRAME":"TEME","MEAN_ELEMENT_THEORY":"SGP4","CENTER_NAME":"EARTH","INCLINATION":"97.6627","DECAY_DATE":null,"OBJECT_TYPE":"PAYLOAD","TLE_LINE2":"2 53232  97.6627 271.2207 0001528 100.7886  15.8339 15.70291728  1306","SEMIMAJOR_AXIS":"6736.200","ECCENTRICITY":"0.00015280","CLASSIFICATION_TYPE":"U","GP_ID":"209299102","EPOCH":"2022-07-31T22:00:00.999936","OBJECT_ID":"2022-084AV","PERIAPSIS":"357.035","ELEMENT_SET_NO":"999","TLE_LINE1":"1 53232U 22084AV  22212.91667824 -.00022228  00000-0 -18272-3 0  9994","COUNTRY_CODE":"US","RCS_SIZE":"LARGE","FILE":"3526413","REV_AT_EPOCH":"130","NORAD_CAT_ID":"53232","SITE":"AFWTR","APOAPSIS":"359.094","PERIOD":"91.703","TIME_SYSTEM":"UTC","MEAN_MOTION":"15.70291728","MEAN_MOTION_DDOT":"0.0000000000000","MEAN_MOTION_DOT":"-0.00022228","EPHEMERIS_TYPE":"0","RA_OF_ASC_NODE":"271.2207","OBJECT_NAME":"STARLINK-4371","MEAN_ANOMALY":"15.8339","BSTAR":"-0.00018272000000","LAUNCH_DATE":"2022-07-22"},{"PERIOD":"91.703","TIME_SYSTEM":"UTC","NORAD_CAT_ID":"53233","APOAPSIS":"359.292","SITE":"AFWTR","REV_AT_EPOCH":"130","COUNTRY_CODE":"US","RCS_SIZE":"MEDIUM","FILE":"3526413","TLE_LINE1":"1 53233U 22084AW  22212.91667824  .00014075  00000-0  11702-3 0  9995","ELEMENT_SET_NO":"999","PERIAPSIS":"356.892","OBJECT_NAME":"STARLINK-4372","MEAN_ANOMALY":"16.6467","BSTAR":"0.00011702000000","LAUNCH_DATE":"2022-07-22","RA_OF_ASC_NODE":"271.2223","EPHEMERIS_TYPE":"0","MEAN_MOTION_DOT":"0.00014075","MEAN_MOTION_DDOT":"0.0000000000000","MEAN_MOTION":"15.70282137","OBJECT_TYPE":"PAYLOAD","DECAY_DATE":null,"CENTER_NAME":"EARTH","INCLINATION":"97.6631","REF_FRAME":"TEME","MEAN_ELEMENT_THEORY":"SGP4","ARG_OF_PERICENTER":"101.0020","OBJECT_ID":"2022-084AW","GP_ID":"209299224","EPOCH":"2022-07-31T22:00:00.999936","CLASSIFICATION_TYPE":"U","ECCENTRICITY":"0.00017810","SEMIMAJOR_AXIS":"6736.227","TLE_LINE2":"2 53233  97.6631 271.2223 0001781 101.0020  16.6467 15.70282137  1300"},{"REV_AT_EPOCH":"130","TIME_SYSTEM":"UTC","PERIOD":"91.699","APOAPSIS":"358.929","SITE":"AFWTR","NORAD_CAT_ID":"53234","ELEMENT_SET_NO":"999","PERIAPSIS":"356.801","FILE":"3526413","RCS_SIZE":"LARGE","COUNTRY_CODE":"US","TLE_LINE1":"1 53234U 22084AX  22212.91667824 -.00122793  00000-0 -10235-2 0  9994","MEAN_MOTION_DOT":"-0.00122793","LAUNCH_DATE":"2022-07-22","BSTAR":"-0.00102350000000","OBJECT_NAME":"STARLINK-4368","MEAN_ANOMALY":"11.2429","RA_OF_ASC_NODE":"271.2216","EPHEMERIS_TYPE":"0","MEAN_MOTION_DDOT":"0.0000000000000","MEAN_MOTION":"15.70361521","OBJECT_TYPE":"PAYLOAD","MEAN_ELEMENT_THEORY":"SGP4","REF_FRAME":"TEME","ARG_OF_PERICENTER":"106.8866","DECAY_DATE":null,"INCLINATION":"97.6630","CENTER_NAME":"EARTH","CLASSIFICATION_TYPE":"U","GP_ID":"209298976","EPOCH":"2022-07-31T22:00:00.999936","OBJECT_ID":"2022-084AX","ECCENTRICITY":"0.00015800","TLE_LINE2":"2 53234  97.6630 271.2216 0001580 106.8866  11.2429 15.70361521  1304","SEMIMAJOR_AXIS":"6736.000"},{"OBJECT_ID":"2022-086A","GP_ID":"209299103","CLASSIFICATION_TYPE":"U","EPOCH":"2022-07-31T22:00:00.999936","ECCENTRICITY":"0.00092400","TLE_LINE2":"2 53242  53.2171   6.8967 0009240  49.4215 304.1585 15.81159834  1308","SEMIMAJOR_AXIS":"6705.297","OBJECT_TYPE":"PAYLOAD","DECAY_DATE":null,"INCLINATION":"53.2171","CENTER_NAME":"EARTH","MEAN_ELEMENT_THEORY":"SGP4","REF_FRAME":"TEME","ARG_OF_PERICENTER":"49.4215","LAUNCH_DATE":"2022-07-24","BSTAR":"-0.00679220000000","MEAN_ANOMALY":"304.1585","OBJECT_NAME":"STARLINK-4056","EPHEMERIS_TYPE":"0","RA_OF_ASC_NODE":"6.8967","MEAN_MOTION_DOT":"-0.01214193","MEAN_MOTION_DDOT":"0.0000000000000","MEAN_MOTION":"15.81159834","TIME_SYSTEM":"UTC","PERIOD":"91.072","APOAPSIS":"333.357","SITE":"AFETR","NORAD_CAT_ID":"53242","REV_AT_EPOCH":"130","FILE":"3526413","COUNTRY_CODE":"US","RCS_SIZE":null,"TLE_LINE1":"1 53242U 22086A   22212.91667824 -.01214193  00000-0 -67922-2 0  9997","ELEMENT_SET_NO":"999","PERIAPSIS":"320.966"},{"ARG_OF_PERICENTER":"51.2589","REF_FRAME":"TEME","MEAN_ELEMENT_THEORY":"SGP4","CENTER_NAME":"EARTH","INCLINATION":"53.2171","DECAY_DATE":null,"OBJECT_TYPE":"PAYLOAD","SEMIMAJOR_AXIS":"6705.446","TLE_LINE2":"2 53243  53.2171   6.9002 0010202  51.2589 301.1085 15.81106936  1302","ECCENTRICITY":"0.00102020","GP_ID":"209299225","CLASSIFICATION_TYPE":"U","EPOCH":"2022-07-31T22:00:00.999936","OBJECT_ID":"2022-086B","PERIAPSIS":"320.470","ELEMENT_SET_NO":"999","TLE_LINE1":"1 53243U 22086B   22212.91667824 -.01215076  00000-0 -68072-2 0  9996","RCS_SIZE":null,"COUNTRY_CODE":"US","FILE":"3526413","REV_AT_EPOCH":"130","NORAD_CAT_ID":"53243","APOAPSIS":"334.152","SITE":"AFETR","PERIOD":"91.075","TIME_SYSTEM":"UTC","MEAN_MOTION":"15.81106936","MEAN_MOTION_DDOT":"0.0000000000000","MEAN_MOTION_DOT":"-0.01215076","RA_OF_ASC_NODE":"6.9002","EPHEMERIS_TYPE":"0","MEAN_ANOMALY":"301.1085","OBJECT_NAME":"STARLINK-4047","LAUNCH_DATE":"2022-07-24","BSTAR":"-0.00680720000000"},{"MEAN_MOTION":"15.81177731","MEAN_MOTION_DDOT":"0.0000000000000","EPHEMERIS_TYPE":"0","RA_OF_ASC_NODE":"6.8962","BSTAR":"-0.00678020000000","LAUNCH_DATE":"2022-07-24","MEAN_ANOMALY":"302.9342","OBJECT_NAME":"STARLINK-4125","MEAN_MOTION_DOT":"-0.01214256","TLE_LINE1":"1 53244U 22086C   22212.91667824 -.01214256  00000-0 -67802-2 0  9996","FILE":"3526413","COUNTRY_CODE":"US","RCS_SIZE":null,"PERIAPSIS":"320.329","ELEMENT_SET_NO":"999","SITE":"AFETR","APOAPSIS":"333.893","NORAD_CAT_ID":"53244","TIME_SYSTEM":"UTC","PERIOD":"91.071","REV_AT_EPOCH":"130","TLE_LINE2":"2 53244  53.2171   6.8962 0010115  51.0451 302.9342 15.81177731  1302","SEMIMAJOR_AXIS":"6705.246","ECCENTRICITY":"0.00101150","OBJECT_ID":"2022-086C","EPOCH":"2022-07-31T22:00:00.999936","GP_ID":"209298977","CLASSIFICATION_TYPE":"U","INCLINATION":"53.2171","CENTER_NAME":"EARTH","DECAY_DATE":null,"ARG_OF_PERICENTER":"51.0451","MEAN_ELEMENT_THEORY":"SGP4","REF_FRAME":"TEME","OBJECT_TYPE":"PAYLOAD"},{"OBJECT_TYPE":"PAYLOAD","ARG_OF_PERICENTER":"49.6926","REF_FRAME":"TEME","MEAN_ELEMENT_THEORY":"SGP4","CENTER_NAME":"EARTH","INCLINATION":"53.2171","DECAY_DATE":null,"GP_ID":"209299353","EPOCH":"2022-07-31T22:00:00.999936","CLASSIFICATION_TYPE":"U","OBJECT_ID":"2022-086D","SEMIMAJOR_AXIS":"6705.395","TLE_LINE2":"2 53245  53.2171   6.8995 0009431  49.6926 303.0733 15.81125146  1307","ECCENTRICITY":"0.00094310","REV_AT_EPOCH":"130","NORAD_CAT_ID":"53245","APOAPSIS":"333.584","SITE":"AFETR","PERIOD":"91.074","TIME_SYSTEM":"UTC","PERIAPSIS":"320.936","ELEMENT_SET_NO":"999","TLE_LINE1":"1 53245U 22086D   22212.91667824 -.01214604  00000-0 -68044-2 0  9993","RCS_SIZE":null,"COUNTRY_CODE":"US","FILE":"3526413","MEAN_MOTION_DOT":"-0.01214604","EPHEMERIS_TYPE":"0","RA_OF_ASC_NODE":"6.8995","OBJECT_NAME":"STARLINK-4124","MEAN_ANOMALY":"303.0733","LAUNCH_DATE":"2022-07-24","BSTAR":"-0.00680440000000","MEAN_MOTION":"15.81125146","MEAN_MOTION_DDOT":"0.0000000000000"}];
